NORAD_CAT_ID,OBJECT_NAME,OBJECT_TYPE,EPOCH,MEAN_MOTION,ECCENTRICITY,INCLINATION,RA_OF_ASC_NODE,ARG_OF_PERICENTER,MEAN_ANOMALY,BSTAR,MEAN_MOTION_DOT,MEAN_MOTION_DDOT,TLE_LINE0,TLE_LINE1,TLE_LINE2,SEMIMAJOR_AXIS,PERIOD,APOGEE,PERIGEE,DECAYED
55289.0,STARLINK-5320,PAYLOAD,2023-12-12 22:10:46,14.98331349,0.0002371,69.9993,286.4198,260.5803,99.5088,2.2266e-05,1.73e-06,0.0,0 STARLINK-5320,1 55289U 23010W   23346.92415091  .00000173  00000-0  22266-4 0  9997,2 55289  69.9993 286.4198 0002371 260.5803  99.5088 14.98331349 50774,6950.189,96.107,573.702,570.406,0.0
55289.0,STARLINK-5320,PAYLOAD,2023-12-13 06:11:26,14.98332744,0.0002347,69.9994,285.5786,259.6322,100.4572,3.6492e-05,3.43e-06,0.0,0 STARLINK-5320,1 55289U 23010W   23347.25794913  .00000343  00000-0  36492-4 0  9992,2 55289  69.9994 285.5786 0002347 259.6322 100.4572 14.98332744 50518,6950.184,96.107,573.681,570.418,0.0
55289.0,STARLINK-5320,PAYLOAD,2023-12-13 22:12:47,14.98372645,0.0001729,69.9997,283.8955,253.1911,106.9058,-0.00075397,-9.087e-05,0.0,0 STARLINK-5320,1 55289U 23010W   23347.92555000 -.00009087  00000-0 -75397-3 0  9990,2 55289  69.9997 283.8955 0001729 253.1911 106.9058 14.98372645 50925,6950.061,96.104,573.128,570.724,0.0
55289.0,STARLINK-5320,PAYLOAD,2023-12-14 04:37:20,14.9832611,0.0002288,69.9996,283.2223,257.3214,102.769,-4.9762e-05,-6.87e-06,0.0,0 STARLINK-5320,1 55289U 23010W   23348.19259575 -.00000687  00000-0 -49762-4 0  9993,2 55289  69.9996 283.2223 0002288 257.3214 102.7690 14.98326110 50651,6950.205,96.107,573.66,570.48,0.0
55289.0,STARLINK-5320,PAYLOAD,2023-12-14 20:38:40,14.98334926,0.000241,69.9996,281.5403,252.6174,107.4722,5.0916e-06,-3.2e-07,0.0,0 STARLINK-5320,1 55289U 23010W   23348.86018793 -.00000032  00000-0  50916-5 0  9999,2 55289  69.9996 281.5403 0002410 252.6174 107.4722 14.98334926 50755,6950.178,96.107,573.718,570.368,0.0
55289.0,STARLINK-5320,PAYLOAD,2023-12-14 22:14:48,14.98335413,0.0002402,69.9996,281.3715,252.6397,107.4499,1.3768e-05,7.1e-07,0.0,0 STARLINK-5320,1 55289U 23010W   23348.92694712  .00000071  00000-0  13768-4 0  9992,2 55289  69.9996 281.3715 0002402 252.6397 107.4499 14.98335413 51076,6950.176,96.107,573.711,570.372,0.0
55289.0,STARLINK-5320,PAYLOAD,2023-12-15 04:39:20,14.98337857,0.0002345,69.9996,280.6983,252.6779,107.4123,4.4157e-05,4.34e-06,0.0,0 STARLINK-5320,1 55289U 23010W   23349.19398374  .00000434  00000-0  44157-4 0  9996,2 55289  69.9996 280.6983 0002345 252.6779 107.4123 14.98337857 51118,6950.169,96.106,573.663,570.404,0.0
55289.0,STARLINK-5320,PAYLOAD,2023-12-15 22:16:49,14.98325691,0.0002187,70.001,278.8483,225.8799,134.2181,5.0765e-06,-3.2e-07,0.0,0 STARLINK-5320,1 55289U 23010W   23349.92835165 -.00000032  00000-0  50765-5 0  9999,2 55289  70.0010 278.8483 0002187 225.8799 134.2181 14.98325691 51227,6950.206,96.107,573.591,570.551,0.0
55289.0,STARLINK-5320,PAYLOAD,2023-12-16 03:05:14,14.98321483,0.0002251,69.9999,278.3415,249.4617,110.63,-2.762e-05,-4.22e-06,0.0,0 STARLINK-5320,1 55289U 23010W   23350.12863640 -.00000422  00000-0 -27620-4 0  9999,2 55289  69.9999 278.3415 0002251 249.4617 110.6300 14.98321483 50947,6950.219,96.108,573.649,570.52,0.0
55289.0,STARLINK-5320,PAYLOAD,2023-12-16 04:41:22,14.98321519,0.000225,69.9999,278.1731,250.5178,109.5738,-2.7937e-05,-4.26e-06,0.0,0 STARLINK-5320,1 55289U 23010W   23350.19539672 -.00000426  00000-0 -27937-4 0  9996,2 55289  69.9999 278.1731 0002250 250.5178 109.5738 14.98321519 51268,6950.219,96.108,573.648,570.52,0.0
55289.0,STARLINK-5320,PAYLOAD,2023-12-16 22:18:50,14.98331579,0.0002455,69.9989,276.3198,255.7521,104.3366,-7.4935e-05,-9.87e-06,0.0,0 STARLINK-5320,1 55289U 23010W   23350.92975235 -.00000987  00000-0 -74935-4 0  9998,2 55289  69.9989 276.3198 0002455 255.7521 104.3366 14.98331579 51379,6950.188,96.107,573.759,570.347,0.0
55289.0,STARLINK-5320,PAYLOAD,2023-12-17 03:07:14,14.98334517,0.0002419,69.9991,275.8154,253.6517,106.4376,-4.9483e-05,-6.83e-06,0.0,0 STARLINK-5320,1 55289U 23010W   23351.13002942 -.00000683  00000-0 -49483-4 0  9991,2 55289  69.9991 275.8154 0002419 253.6517 106.4376 14.98334517 51098,6950.179,96.107,573.725,570.363,0.0
55289.0,STARLINK-5320,PAYLOAD,2023-12-17 04:43:22,14.98334405,0.0002436,69.9992,275.6473,255.745,104.3439,-3.4104e-05,-5e-06,0.0,0 STARLINK-5320,1 55289U 23010W   23351.19678898 -.00000500  00000-0 -34104-4 0  9998,2 55289  69.9992 275.6473 0002436 255.7450 104.3439 14.98334405 51418,6950.179,96.107,573.737,570.351,0.0
55289.0,STARLINK-5320,PAYLOAD,2023-12-17 22:20:50,14.98333008,0.0002476,69.999,273.7952,258.7741,101.314,0.00010463,1.156e-05,0.0,0 STARLINK-5320,1 55289U 23010W   23351.93114439  .00001156  00000-0  10463-3 0  9993,2 55289  69.9990 273.7952 0002476 258.7741 101.3140 14.98333008 51523,6950.184,96.107,573.769,570.328,0.0
55289.0,STARLINK-5320,PAYLOAD,2023-12-18 03:09:14,14.9833837,0.0002364,69.9993,273.2905,252.8881,107.202,0.00016709,1.902e-05,0.0,0 STARLINK-5320,1 55289U 23010W   23352.13141832  .00001902  00000-0  16709-3 0  9991,2 55289  69.9993 273.2905 0002364 252.8881 107.2020 14.98338370 51243,6950.167,96.106,573.675,570.389,0.0
55289.0,STARLINK-5320,PAYLOAD,2023-12-18 04:45:22,14.983397,0.0002363,69.9994,273.1225,253.0656,107.0244,0.00017684,2.018e-05,0.0,0 STARLINK-5320,1 55289U 23010W   23352.19817683  .00002018  00000-0  17684-3 0  9993,2 55289  69.9994 273.1225 0002363 253.0656 107.0244 14.98339700 51569,6950.163,96.106,573.67,570.386,0.0
55289.0,STARLINK-5320,PAYLOAD,2023-12-18 19:10:35,14.98329721,0.0002235,70.0021,271.6119,215.8784,144.2225,6.6712e-05,7.03e-06,0.0,0 STARLINK-5320,1 55289U 23010W   23352.79902388  .00000703  00000-0  66712-4 0  9992,2 55289  70.0021 271.6119 0002235 215.8784 144.2225 14.98329721 51344,6950.194,96.107,573.612,570.505,0.0
55289.0,STARLINK-5320,PAYLOAD,2023-12-18 22:22:51,14.98330159,0.0002339,70.002,271.2745,208.6102,151.4929,4.9387e-05,4.96e-06,0.0,0 STARLINK-5320,1 55289U 23010W   23352.93254397  .00000496  00000-0  49387-4 0  9996,2 55289  70.0020 271.2745 0002339 208.6102 151.4929 14.98330159 51677,6950.192,96.107,573.683,570.432,0.0
55289.0,STARLINK-5320,PAYLOAD,2023-12-19 04:47:23,14.98335555,0.0002166,69.9997,270.5978,252.781,107.3112,4.9837e-05,5.02e-06,0.0,0 STARLINK-5320,1 55289U 23010W   23353.19958125  .00000502  00000-0  49837-4 0  9993,2 55289  69.9997 270.5978 0002166 252.7810 107.3112 14.98335555 51715,6950.176,96.107,573.546,570.535,0.0
55289.0,STARLINK-5320,PAYLOAD,2023-12-19 19:12:36,14.98331514,0.0002033,70.0014,269.0856,222.7318,137.3683,-8.045e-05,-1.053e-05,0.0,0 STARLINK-5320,1 55289U 23010W   23353.80042583 -.00001053  00000-0 -80450-4 0  9993,2 55289  70.0014 269.0856 0002033 222.7318 137.3683 14.98331514 51491,6950.188,96.107,573.466,570.64,0.0
55289.0,STARLINK-5320,PAYLOAD,2023-12-20 04:49:25,14.98328591,0.0002486,69.9992,268.0729,254.6787,105.4098,-0.000119,-1.512e-05,0.0,0 STARLINK-5320,1 55289U 23010W   23354.20098931 -.00001512  00000-0 -11900-3 0  9999,2 55289  69.9992 268.0729 0002486 254.6787 105.4098 14.98328591 51551,6950.197,96.107,573.79,570.334,0.0
55289.0,STARLINK-5320,PAYLOAD,2023-12-20 19:14:37,14.98354567,0.0002472,69.999,266.557,268.8083,91.2793,-0.00043641,-5.299e-05,0.0,0 STARLINK-5320,1 55289U 23010W   23354.80182512 -.00005299  00000-0 -43641-3 0  9997,2 55289  69.9990 266.5570 0002472 268.8083  91.2793 14.98354567 51643,6950.117,96.105,573.7,570.264,0.0
55289.0,STARLINK-5320,PAYLOAD,2023-12-20 22:26:53,14.98355976,0.0002319,69.9989,266.2192,264.4577,95.6318,-0.00036448,-4.442e-05,0.0,0 STARLINK-5320,1 55289U 23010W   23354.93534006 -.00004442  00000-0 -36448-3 0  9996,2 55289  69.9989 266.2192 0002319 264.4577  95.6318 14.98355976 51970,6950.113,96.105,573.589,570.366,0.0
55289.0,STARLINK-5320,PAYLOAD,2023-12-21 03:15:17,14.98335607,0.0002095,70.0005,265.7164,245.2414,114.8528,6.15e-05,6.41e-06,0.0,0 STARLINK-5320,1 55289U 23010W   23355.13561889  .00000641  00000-0  61500-4 0  9991,2 55289  70.0005 265.7164 0002095 245.2414 114.8528 14.98335607 52004,6950.176,96.107,573.497,570.584,0.0
55289.0,STARLINK-5320,PAYLOAD,2023-12-21 22:28:55,14.98320578,0.0002232,70.0011,263.6995,243.1634,116.9297,3.6796e-05,3.46e-06,0.0,0 STARLINK-5320,1 55289U 23010W   23355.93675001  .00000346  00000-0  36796-4 0  9992,2 55289  70.0011 263.6995 0002232 243.1634 116.9297 14.98320578 52124,6950.222,96.108,573.638,570.536,0.0
55289.0,STARLINK-5320,PAYLOAD,2023-12-22 03:17:19,14.9832199,0.0002576,69.999,263.1905,264.4368,95.6497,5.4332e-06,-2.8e-07,0.0,0 STARLINK-5320,1 55289U 23010W   23356.13703084 -.00000028  00000-0  54332-5 0  9993,2 55289  69.9990 263.1905 0002576 264.4368  95.6497 14.98321990 51846,6950.218,96.108,573.873,570.292,0.0
55289.0,STARLINK-5320,PAYLOAD,2023-12-22 19:18:39,14.98333441,0.0002317,69.9995,261.5071,258.2142,101.8757,-5.9222e-05,-7.99e-06,0.0,0 STARLINK-5320,1 55289U 23010W   23356.80462705 -.00000799  00000-0 -59222-4 0  9997,2 55289  69.9995 261.5071 0002317 258.2142 101.8757 14.98333441 51945,6950.182,96.107,573.658,570.437,0.0
55289.0,STARLINK-5320,PAYLOAD,2023-12-22 22:30:55,14.9833322,0.0002324,69.9994,261.1703,258.2528,101.837,-5.7543e-05,-7.79e-06,0.0,0 STARLINK-5320,1 55289U 23010W   23356.93814685 -.00000779  00000-0 -57543-4 0  9991,2 55289  69.9994 261.1703 0002324 258.2528 101.8370 14.98333220 52271,6950.183,96.107,573.663,570.433,0.0
55289.0,STARLINK-5320,PAYLOAD,2023-12-23 03:19:19,14.98337084,0.0002599,69.9987,260.6641,268.4186,91.6675,-1.3859e-05,-2.58e-06,0.0,0 STARLINK-5320,1 55289U 23010W   23357.13842294 -.00000258  00000-0 -13859-4 0  9995,2 55289  69.9987 260.6641 0002599 268.4186  91.6675 14.98337084 52305,6950.171,96.107,573.842,570.23,0.0
55289.0,STARLINK-5320,PAYLOAD,2023-12-23 19:20:41,14.9832201,0.0002285,69.9993,258.979,256.7177,103.3728,5.5909e-05,5.74e-06,0.0,0 STARLINK-5320,1 55289U 23010W   23357.80603046  .00000574  00000-0  55909-4 0  9990,2 55289  69.9993 258.9790 0002285 256.7177 103.3728 14.98322010 52098,6950.218,96.108,573.671,570.494,0.0
